IRIDIUM 8 [+]           
1 24792U 97020A   16158.39360865  .00000158  00000-0  49283-4 0  9997
2 24792  86.3962 115.8087 0002220  85.9294 274.2155 14.34217737999331
IRIDIUM 7 [+]           
1 24793U 97020B   16158.38726149  .00000143  00000-0  44057-4 0  9996
2 24793  86.3967 116.0737 0002266  86.0260 274.1195 14.34218402999330
IRIDIUM 6 [+]           
1 24794U 97020C   16158.38083471  .00000162  00000-0  50813-4 0  9999
2 24794  86.3965 116.0156 0002338  86.1940 273.9523 14.34212934999336
IRIDIUM 5 [+]           
1 24795U 97020D   16158.37460062  .00000212  00000-0  68498-4 0  9998
2 24795  86.3954 116.0484 0002398  83.2890 276.8578 14.34218115999415
IRIDIUM 4 [-]           
1 24796U 97020E   16158.40819400  .00000126  00000-0  37290-4 0  9997
2 24796  86.3958 115.2061 0002158  87.6374  24.2438 14.35083342999414
IRIDIUM 914 [-]         
1 24836U 97030A   16158.48300700  .00000141  00000-0  39658-4 0  9996
2 24836  86.3935 132.9338 0000648 101.9057 258.2214 14.38685177994926
IRIDIUM 12 [+]          
1 24837U 97030B   16158.42031477 -.00000002  00000-0 -77275-5 0  9999
2 24837  86.3960 147.1919 0002215  82.6455  70.4952 14.34217117993087
IRIDIUM 10 [+]          
1 24839U 97030D   16158.46914390 -.00000012  00000-0 -11329-4 0  9997
2 24839  86.3960 147.1536 0002190  83.4033  27.1419 14.34216997993102
IRIDIUM 13 [+]          
1 24840U 97030E   16158.46677233 -.00000022  00000-0 -14849-4 0  9992
2 24840  86.3962 147.2866 0002203  78.8311 281.3133 14.34216926993092
IRIDIUM 16 [-]          
1 24841U 97030F   16158.51253358  .00000148  00000-0  43727-4 0  9991
2 24841  86.4035 147.3584 0004452  80.7310 279.4390 14.36629594993647
IRIDIUM 911 [-]         
1 24842U 97030G   16158.48336996  .00000202  00000-0  52390-4 0  9995
2 24842  86.4463 148.3757 0012275 256.9568 103.0264 14.44860448998696
IRIDIUM 15 [+]          
1 24869U 97034A   16158.45751967 -.00000013  00000-0 -11650-4 0  9990
2 24869  86.3975 178.8799 0002267  86.7636 273.3819 14.34218411990067
IRIDIUM 17 [-]          
1 24870U 97034B   16158.51043039  .00000164  00000-0  50156-4 0  9992
2 24870  86.3974 177.5740 0002771  57.6576 302.4888 14.35675399990265
IRIDIUM 920 [-]         
1 24871U 97034C   16158.50188161  .00000142  00000-0  39189-4 0  9997
2 24871  86.3979 164.6782 0013398 129.4864 230.7522 14.39404723992309
IRIDIUM 18 [+]          
1 24872U 97034D   16158.48923338 -.00000026  00000-0 -16473-4 0  9992
2 24872  86.3978 179.0985 0002378  88.4346 271.7122 14.34218225990066
IRIDIUM 921 [-]         
1 24873U 97034E   16158.46139734  .00001412  00000-0  83737-4 0  9995
2 24873  86.3951 243.3965 0006494 336.8354  23.2591 15.10483934 31368
IRIDIUM 26 [-]          
1 24903U 97043A   16158.25339741  .00000147  00000-0  44555-4 0  9995
2 24903  86.3983  52.2048 0002342  88.7930  25.7786 14.35195544984056
IRIDIUM 25 [+]          
1 24904U 97043B   16158.22820699  .00000250  00000-0  82179-4 0  9999
2 24904  86.3977  52.6216 0002313  86.6943 273.4518 14.34215890983937
IRIDIUM 46 [+]          
1 24905U 97043C   16158.24089172  .00000095  00000-0  26971-4 0  9990
2 24905  86.3985  53.1359 0002230  88.2047 271.9404 14.34215503983941
IRIDIUM 23 [S]          
1 24906U 97043D   16158.25678214  .00000244  00000-0  79934-4 0  9996
2 24906  86.3989  52.6005 0002233  89.5765  25.2782 14.34215918983952
IRIDIUM 22 [+]          
1 24907U 97043E   16158.20917868  .00000037  00000-0  60377-5 0  9995
2 24907  86.3988  53.2547 0002238  85.4771 274.6680 14.34215787983936
DUMMY MASS 1 [-]        
1 24925U 97048A   16157.73186568  .00000128  00000-0  11698-4 0  9994
2 24925  86.3377 216.9352 0004899 304.7697  55.3066 14.85079396 15713
DUMMY MASS 2 [-]        
1 24926U 97048B   16157.77905325  .00000136  00000-0  12782-4 0  9993
2 24926  86.3376 217.9665 0005885 312.6215  47.4512 14.84847974 15331
IRIDIUM 29 [-]          
1 24944U 97051A   16158.51056489  .00000121  00000-0  35967-4 0  9992
2 24944  86.3974  84.0426 0001903  85.3753 274.7660 14.34579918980561
IRIDIUM 32 [+]          
1 24945U 97051B   16158.30775026  .00000248  00000-0  81326-4 0  9995
2 24945  86.3974  84.2600 0002201  86.0073 274.1374 14.34222228980546
IRIDIUM 33 [-]          
1 24946U 97051C   16158.29847282  .00000108  00000-0  32124-4 0  9995
2 24946  86.3889  84.0840 0009268  39.8219 320.3655 14.33492857980186
IRIDIUM 28 [-]          
1 24948U 97051E   16158.34603155  .00000149  00000-0  45070-4 0  9991
2 24948  86.3979  83.5569 0002567  84.6480 275.5009 14.35482341980658
IRIDIUM 30 [+]          
1 24949U 97051F   16158.30140821  .00000248  00000-0  81552-4 0  9999
2 24949  86.3974  84.3526 0002251  88.0324 272.1129 14.34222258980521
IRIDIUM 31 [+]          
1 24950U 97051G   16158.29506749  .00000021  00000-0  39510-6 0  9992
2 24950  86.3976  84.3551 0002159  83.1743 276.9698 14.34221342980538
IRIDIUM 19 [+]          
1 24965U 97056A   16158.41898482  .00000158  00000-0  49407-4 0  9990
2 24965  86.3963 115.8064 0002238  85.9024 274.2427 14.34217363978692
IRIDIUM 35 [+]          
1 24966U 97056B   16158.29212694  .00000157  00000-0  48939-4 0  9990
2 24966  86.3963 115.8564 0002261  85.9768 274.1686 14.34217696978650
IRIDIUM 36 [-]          
1 24967U 97056C   16158.43406319  .00000143  00000-0  42777-4 0  9995
2 24967  86.3973 115.1501 0002160  84.0752 276.0691 14.35531016978953
IRIDIUM 37 [+]          
1 24968U 97056D   16158.40629231  .00000138  00000-0  42274-4 0  9999
2 24968  86.3964 115.9841 0002221  85.4852 274.6598 14.34217675978673
IRIDIUM 34 [+]          
1 24969U 97056E   16158.42534663  .00000150  00000-0  46399-4 0  9992
2 24969  86.3964 115.9131 0002247  84.6078 275.5374 14.34215866978677
IRIDIUM 43 [+]          
1 25039U 97069A   16158.48288044  .00000034  00000-0  50956-5 0  9996
2 25039  86.3968 179.0249 0002251  88.2034 271.9419 14.34219848972463
IRIDIUM 41 [+]          
1 25040U 97069B   16158.50807807 -.00000002  00000-0 -77246-5 0  9993
2 25040  86.3977 178.9770 0002414  89.1829  73.6475 14.34218543972465
IRIDIUM 40 [+]          
1 25041U 97069C   16158.50188920  .00000098  00000-0  27887-4 0  9990
2 25041  86.3965 179.2032 0001723  66.7628 293.3749 14.34219013972488
IRIDIUM 39 [+]          
1 25042U 97069D   16158.50833312 -.00000089  00000-0 -38978-4 0  9998
2 25042  86.3989 179.2645 0001973 103.8620 256.2795 14.34160078972460
IRIDIUM 38 [-]          
1 25043U 97069E   16158.49377588  .00000158  00000-0  47646-4 0  9992
2 25043  86.3972 176.6204 0003555  84.1857 275.9745 14.35952290972814
IRIDIUM 42 [-]          
1 25077U 97077A   16158.49340738  .00000136  00000-0  41200-4 0  9991
2 25077  86.3977 178.9944 0002427  88.1900 271.9574 14.34482978968330
IRIDIUM 44 [-]          
1 25078U 97077B   16158.47669822  .00000161  00000-0  46768-4 0  9990
2 25078  86.3968 169.5110 0003889  77.3665 282.7968 14.38036415969639
IRIDIUM 45 [+]          
1 25104U 97082A   16158.28872418  .00000253  00000-0  83267-4 0  9999
2 25104  86.3973  84.3998 0003546  86.0056 274.1545 14.34222525966496
IRIDIUM 24 [-]          
1 25105U 97082B   16158.20212566  .00000287  00000-0  85037-4 0  9998
2 25105  86.3940  34.2262 0013051 135.0864 225.1393 14.39777759968750
IRIDIUM 47 [+]          
1 25106U 97082C   16158.24723637  .00000109  00000-0  31741-4 0  9995
2 25106  86.3975  52.4967 0002229  89.8442 270.3009 14.34215663966486
IRIDIUM 49 [+]          
1 25108U 97082E   16158.22142314  .00000243  00000-0  79763-4 0  9997
2 25108  86.3981  52.5999 0002456  83.5791  77.9151 14.34213550966483
IRIDIUM 52 [+]          
1 25169U 98010A   16158.49848841  .00000001  00000-0 -66458-5 0  9994
2 25169  86.3964 147.4374 0002199  82.4870 277.6575 14.34217183957937
IRIDIUM 56 [+]          
1 25170U 98010B   16158.49214492  .00000039  00000-0  67506-5 0  9990
2 25170  86.3952 147.5401 0002584  90.9196 269.2296 14.34218739957914
IRIDIUM 54 [+]          
1 25171U 98010C   16158.45408919 -.00000003  00000-0 -81474-5 0  9999
2 25171  86.3965 147.4749 0002188  82.5011 277.6433 14.34217241958077
IRIDIUM 50 [+]          
1 25172U 98010D   16158.48580280 -.00000008  00000-0 -99079-5 0  9990
2 25172  86.3965 147.4200 0002109  83.5272 276.6163 14.34217110957919
IRIDIUM 53 [+]          
1 25173U 98010E   16158.50482947 -.00000002  00000-0 -77677-5 0  9999
2 25173  86.3964 147.4178 0002187  82.3652 277.7792 14.34217068957921
IRIDIUM 51 [S]          
1 25262U 98018A   16158.38094801  .00000138  00000-0  42136-4 0  9999
2 25262  86.3966 116.1077 0002206  89.0732 271.0716 14.34215877957297
IRIDIUM 61 [+]          
1 25263U 98018B   16158.41264700  .00000145  00000-0  44809-4 0  9998
2 25263  86.3964 115.9475 0002255  86.3574 273.7880 14.34217053953007
IRIDIUM 55 [+]          
1 25272U 98019A   16158.34580468  .00000233  00000-0  76222-4 0  9995
2 25272  86.3974  84.1548 0002254  85.8697 274.2756 14.34222009952199
IRIDIUM 57 [+]          
1 25273U 98019B   16158.32041082  .00000097  00000-0  27621-4 0  9995
2 25273  86.3977  84.4565 0002124  87.4347 272.7092 14.34221409952190
IRIDIUM 58 [+]          
1 25274U 98019C   16158.32677931  .00000247  00000-0  80998-4 0  9997
2 25274  86.3979  84.6403 0002261  88.0943 272.0512 14.34221280952194
IRIDIUM 59 [+]          
1 25275U 98019D   16158.33311803  .00000251  00000-0  82729-4 0  9991
2 25275  86.3974  84.5112 0002134  86.2426 273.9014 14.34222306952198
IRIDIUM 60 [+]          
1 25276U 98019E   16158.33946502  .00000239  00000-0  78267-4 0  9990
2 25276  86.3972  84.1427 0002254  85.4947 274.6506 14.34222002952191
IRIDIUM 62 [+]          
1 25285U 98021A   16158.16136839  .00000170  00000-0  53753-4 0  9995
2 25285  86.3967  21.1136 0002199  90.4368 269.7080 14.34218410951126
IRIDIUM 63 [-]          
1 25286U 98021B   16158.15341745  .00000137  00000-0  41560-4 0  9995
2 25286  86.3995  21.5004 0001927  90.2035  21.3455 14.34595294951130
